STARLINK-30556          
1 58031U 23156D   26068.25197209 -.00000564  00000+0 -69054-5 0  9996
2 58031  53.1604  90.4239 0001273 102.6624 257.4520 15.30189725136094
YAOGAN-43 01G           
1 60464U 24148G   26068.44348481  .00010133  00000+0  35873-3 0  9993
2 60464  35.0006  62.0013 0007382 306.3543  53.6492 15.28332833 87004
